{
  "norad_id": 58773,
  "name": "STARLINK-31073",
  "history": [
    {
      "epoch": "2026-03-28T20:31:28.524000Z",
      "apogee_km": 475.9811003361374,
      "perigee_km": 474.4702080053994,
      "latitude_deg": 4.7382240459368306e-05,
      "longitude_deg": 150.5847344336412,
      "height_km": 476.19980248423366,
      "semi_major_axis_km": 6853.362654170768,
      "eccentricity": 0.00011023,
      "inclination_deg": 53.1598,
      "raan_deg": 284.7232,
      "arg_perigee_deg": 95.7639,
      "mean_anomaly_deg": 264.3488,
      "mean_motion_rev_day": 15.30196455
    },
    {
      "epoch": "2026-03-28T22:05:31.733952Z",
      "apogee_km": 475.9673044423889,
      "perigee_km": 474.4869777879085,
      "latitude_deg": 1.2994163415233818e-05,
      "longitude_deg": 126.70355665485582,
      "height_km": 476.2013873894303,
      "semi_major_axis_km": 6853.364141115148,
      "eccentricity": 0.000108,
      "inclination_deg": 53.1596,
      "raan_deg": 284.4198,
      "arg_perigee_deg": 95.8899,
      "mean_anomaly_deg": 264.2225,
      "mean_motion_rev_day": 15.30195957
    },
    {
      "epoch": "2026-03-29T21:36:19.584288Z",
      "apogee_km": 475.8532829119049,
      "perigee_km": 474.62104623711366,
      "latitude_deg": -3.947815463409157e-05,
      "longitude_deg": 128.48778500557333,
      "height_km": 476.23102165854544,
      "semi_major_axis_km": 6853.3741645745085,
      "eccentricity": 8.99e-05,
      "inclination_deg": 53.1581,
      "raan_deg": 279.8691,
      "arg_perigee_deg": 98.9143,
      "mean_anomaly_deg": 261.1959,
      "mean_motion_rev_day": 15.301926
    },
    {
      "epoch": "2026-03-30T05:26:35.705760Z",
      "apogee_km": 475.8433089967084,
      "perigee_km": 474.63588110819273,
      "latitude_deg": 4.763991762077837e-05,
      "longitude_deg": 9.082789947877766,
      "height_km": 476.2328865615331,
      "semi_major_axis_km": 6853.37659505245,
      "eccentricity": 8.809e-05,
      "inclination_deg": 53.1583,
      "raan_deg": 278.3531,
      "arg_perigee_deg": 99.0415,
      "mean_anomaly_deg": 261.0686,
      "mean_motion_rev_day": 15.30191786
    },
    {
      "epoch": "2026-03-30T13:16:51.659616Z",
      "apogee_km": 475.8355992471015,
      "perigee_km": 474.6396853720189,
      "latitude_deg": 3.290886712964608e-05,
      "longitude_deg": -110.32288061982716,
      "height_km": 476.2248242539873,
      "semi_major_axis_km": 6853.37464230956,
      "eccentricity": 8.725e-05,
      "inclination_deg": 53.1583,
      "raan_deg": 276.8358,
      "arg_perigee_deg": 98.5357,
      "mean_anomaly_deg": 261.5743,
      "mean_motion_rev_day": 15.3019244
    },
    {
      "epoch": "2026-03-30T22:41:10.698144Z",
      "apogee_km": 475.9390766879342,
      "perigee_km": 474.5116583740255,
      "latitude_deg": -2.8897984045109586e-06,
      "longitude_deg": 106.3902044872804,
      "height_km": 476.1265444130749,
      "semi_major_axis_km": 6853.36236753098,
      "eccentricity": 0.00010414,
      "inclination_deg": 53.1586,
      "raan_deg": 275.0145,
      "arg_perigee_deg": 90.2363,
      "mean_anomaly_deg": 269.8757,
      "mean_motion_rev_day": 15.30196551
    },
    {
      "epoch": "2026-03-31T19:03:52.430976Z",
      "apogee_km": 477.4626555548539,
      "perigee_km": 473.01481470275576,
      "latitude_deg": -6.389048305097238e-05,
      "longitude_deg": 155.9363680510764,
      "height_km": 476.4526405941485,
      "semi_major_axis_km": 6853.375735128804,
      "eccentricity": 0.0003245,
      "inclination_deg": 53.1584,
      "raan_deg": 271.0715,
      "arg_perigee_deg": 98.2449,
      "mean_anomaly_deg": 261.8919,
      "mean_motion_rev_day": 15.30192074
    },
    {
      "epoch": "2026-04-01T18:34:40.202688Z",
      "apogee_km": 476.0211475398273,
      "perigee_km": 474.4106096133628,
      "latitude_deg": 5.4576091879533516e-05,
      "longitude_deg": 157.72095307910578,
      "height_km": 476.0996590681567,
      "semi_major_axis_km": 6853.352878576595,
      "eccentricity": 0.0001175,
      "inclination_deg": 53.1586,
      "raan_deg": 266.5207,
      "arg_perigee_deg": 88.9849,
      "mean_anomaly_deg": 271.1287,
      "mean_motion_rev_day": 15.30199729
    },
    {
      "epoch": "2026-04-02T18:05:27.989952Z",
      "apogee_km": 476.0527297005892,
      "perigee_km": 474.3791409137875,
      "latitude_deg": -3.5813505940521e-05,
      "longitude_deg": 159.5045170737455,
      "height_km": 476.15175154940755,
      "semi_major_axis_km": 6853.352935307188,
      "eccentricity": 0.0001221,
      "inclination_deg": 53.1557,
      "raan_deg": 261.9691,
      "arg_perigee_deg": 92.6117,
      "mean_anomaly_deg": 267.5023,
      "mean_motion_rev_day": 15.3019971
    },
    {
      "epoch": "2026-04-02T18:05:27.990816Z",
      "apogee_km": 476.0524555664724,
      "perigee_km": 474.37941504790433,
      "latitude_deg": 4.8393914113318374e-05,
      "longitude_deg": 159.5045762117564,
      "height_km": 476.1517286129134,
      "semi_major_axis_km": 6853.352935307188,
      "eccentricity": 0.00012206,
      "inclination_deg": 53.1557,
      "raan_deg": 261.9691,
      "arg_perigee_deg": 92.6118,
      "mean_anomaly_deg": 267.5023,
      "mean_motion_rev_day": 15.3019971
    },
    {
      "epoch": "2026-04-03T17:36:16.547040Z",
      "apogee_km": 475.99665070249193,
      "perigee_km": 474.56976861484145,
      "latitude_deg": -1.9130731561598197e-05,
      "longitude_deg": 161.28454377999762,
      "height_km": 476.26008948778224,
      "semi_major_axis_km": 6853.420209658667,
      "eccentricity": 0.0001041,
      "inclination_deg": 53.1561,
      "raan_deg": 257.4171,
      "arg_perigee_deg": 96.3504,
      "mean_anomaly_deg": 263.7615,
      "mean_motion_rev_day": 15.30177179
    },
    {
      "epoch": "2026-04-04T18:41:07.399968Z",
      "apogee_km": 475.86005893734,
      "perigee_km": 474.5976689452018,
      "latitude_deg": 2.351504519618279e-05,
      "longitude_deg": 139.18875604889922,
      "height_km": 476.191904082654,
      "semi_major_axis_km": 6853.365863941271,
      "eccentricity": 9.21e-05,
      "inclination_deg": 53.1591,
      "raan_deg": 252.5632,
      "arg_perigee_deg": 95.8735,
      "mean_anomaly_deg": 264.2371,
      "mean_motion_rev_day": 15.3019538
    },
    {
      "epoch": "2026-04-05T13:29:46.077504Z",
      "apogee_km": 475.9095821227529,
      "perigee_km": 474.5427473731761,
      "latitude_deg": 5.3605521256744005e-05,
      "longitude_deg": -147.3841089443423,
      "height_km": 476.296605102585,
      "semi_major_axis_km": 6853.363164747964,
      "eccentricity": 9.972e-05,
      "inclination_deg": 53.1587,
      "raan_deg": 248.924,
      "arg_perigee_deg": 104.5859,
      "mean_anomaly_deg": 255.5253,
      "mean_motion_rev_day": 15.30196284
    },
    {
      "epoch": "2026-04-05T16:37:52.371264Z",
      "apogee_km": 475.9114809579942,
      "perigee_km": 474.5165498923152,
      "latitude_deg": -1.741413362340293e-05,
      "longitude_deg": 164.85396068052313,
      "height_km": 476.2735258451055,
      "semi_major_axis_km": 6853.351015425154,
      "eccentricity": 0.00010177,
      "inclination_deg": 53.1592,
      "raan_deg": 248.3171,
      "arg_perigee_deg": 103.3584,
      "mean_anomaly_deg": 256.753,
      "mean_motion_rev_day": 15.30200353
    },
    {
      "epoch": "2026-04-07T03:07:02.531424Z",
      "apogee_km": 476.0468930637853,
      "perigee_km": 474.40482732248347,
      "latitude_deg": -3.821818917176189e-05,
      "longitude_deg": -0.5323883149526664,
      "height_km": 476.4260435626054,
      "semi_major_axis_km": 6853.362860193134,
      "eccentricity": 0.0001198,
      "inclination_deg": 53.1607,
      "raan_deg": 241.6394,
      "arg_perigee_deg": 111.5685,
      "mean_anomaly_deg": 248.5443,
      "mean_motion_rev_day": 15.30196386
    },
    {
      "epoch": "2026-04-07T18:47:33.603648Z",
      "apogee_km": 476.1095363967879,
      "perigee_km": 474.2851787907957,
      "latitude_deg": 3.7362414312825556e-05,
      "longitude_deg": 120.65963687376892,
      "height_km": 476.321272176469,
      "semi_major_axis_km": 6853.3343575937915,
      "eccentricity": 0.0001331,
      "inclination_deg": 53.159,
      "raan_deg": 238.6046,
      "arg_perigee_deg": 104.3437,
      "mean_anomaly_deg": 255.7712,
      "mean_motion_rev_day": 15.30205932
    },
    {
      "epoch": "2026-04-08T15:10:16.864896Z",
      "apogee_km": 475.89671737813933,
      "perigee_km": 474.6932547213901,
      "latitude_deg": -3.552997267715404e-05,
      "longitude_deg": 170.20390197591675,
      "height_km": 475.94742428989383,
      "semi_major_axis_km": 6853.431986049764,
      "eccentricity": 8.78e-05,
      "inclination_deg": 53.1592,
      "raan_deg": 234.6661,
      "arg_perigee_deg": 65.8507,
      "mean_anomaly_deg": 294.2585,
      "mean_motion_rev_day": 15.30173235
    },
    {
      "epoch": "2026-04-09T16:15:08.515296Z",
      "apogee_km": 476.5668979752854,
      "perigee_km": 473.89682546675886,
      "latitude_deg": 2.1869143584734194e-05,
      "longitude_deg": 148.1035909932082,
      "height_km": 475.67894277725185,
      "semi_major_axis_km": 6853.368861721022,
      "eccentricity": 0.0001948,
      "inclination_deg": 53.1574,
      "raan_deg": 229.811,
      "arg_perigee_deg": 70.3051,
      "mean_anomaly_deg": 289.816,
      "mean_motion_rev_day": 15.30194376
    },
    {
      "epoch": "2026-04-10T12:37:48.979776Z",
      "apogee_km": 475.6254772969796,
      "perigee_km": 474.73317551128184,
      "latitude_deg": -3.4302892511292876e-05,
      "longitude_deg": -162.3480459473049,
      "height_km": 476.0095994947443,
      "semi_major_axis_km": 6853.31632640413,
      "eccentricity": 6.51e-05,
      "inclination_deg": 53.1607,
      "raan_deg": 225.8649,
      "arg_perigee_deg": 81.1395,
      "mean_anomaly_deg": 278.9679,
      "mean_motion_rev_day": 15.30211971
    }
  ]
}